{
  "type": "FeatureCollection",
  "features": [
    {
      "type": "Feature",
      "properties": {
        "norad_id": 30709,
        "name": "FENGYUN 1C DEB",
        "group": "fengyun-1c-debris",
        "lat": -52.91638206566513,
        "lon": 135.69302649583963,
        "alt_km": 787.8121361043368,
        "timestamp": "2025-12-15T22:44:29.206289+00:00",
        "meta_object_name": "FENGYUN 1C DEB",
        "meta_object_id": "1999-025ART",
        "meta_epoch": "2025-12-15T04:41:41.135136",
        "meta_mean_motion": 14.17508164,
        "meta_eccentricity": 0.00822776,
        "meta_inclination": 99.1442,
        "meta_ra_of_asc_node": 327.2234,
        "meta_arg_of_pericenter": 263.1496,
        "meta_mean_anomaly": 96.0312,
        "meta_ephemeris_type": 0,
        "meta_classification_type": "U",
        "meta_norad_cat_id": 30709,
        "meta_element_set_no": 999,
        "meta_rev_at_epoch": 96031,
        "meta_bstar": 0.0017798522,
        "meta_mean_motion_dot": 3.687e-05,
        "meta_mean_motion_ddot": 0,
        "tle_line1": "1 30709U 99025ART 25349.19561499  .00003687  00000+0  17799-2 0  9999",
        "tle_line2": "2 30709  99.1442 327.2234 0082277 263.1496  96.0312 14.17508164960317"
      },
      "geometry": {
        "type": "Point",
        "coordinates": [
          135.69302649583963,
          -52.91638206566513
        ]
      }
    },
    {
      "type": "Feature",
      "properties": {
        "norad_id": 30710,
        "name": "FENGYUN 1C DEB",
        "group": "fengyun-1c-debris",
        "lat": -22.529754811486136,
        "lon": 54.97071703807696,
        "alt_km": 1015.9733043113392,
        "timestamp": "2025-12-15T22:44:29.206299+00:00",
        "meta_object_name": "FENGYUN 1C DEB",
        "meta_object_id": "1999-025ARU",
        "meta_epoch": "2025-12-14T23:27:37.365984",
        "meta_mean_motion": 13.94164125,
        "meta_eccentricity": 0.02238456,
        "meta_inclination": 102.7463,
        "meta_ra_of_asc_node": 239.0244,
        "meta_arg_of_pericenter": 77.9335,
        "meta_mean_anomaly": 296.6663,
        "meta_ephemeris_type": 0,
        "meta_classification_type": "U",
        "meta_norad_cat_id": 30710,
        "meta_element_set_no": 999,
        "meta_rev_at_epoch": 94820,
        "meta_bstar": 0.0020881551,
        "meta_mean_motion_dot": 3.339e-05,
        "meta_mean_motion_ddot": 0,
        "tle_line1": "1 30710U 99025ARU 25348.97751581  .00003339  00000+0  20882-2 0  9990",
        "tle_line2": "2 30710 102.7463 239.0244 0223845  77.9335 296.6663 13.94164125948205"
      },
      "geometry": {
        "type": "Point",
        "coordinates": [
          54.97071703807696,
          -22.529754811486136
        ]
      }
    },
    {
      "type": "Feature",
      "properties": {
        "norad_id": 30714,
        "name": "FENGYUN 1C DEB",
        "group": "fengyun-1c-debris",
        "lat": -66.9874536050138,
        "lon": 59.86477418626392,
        "alt_km": 843.5034769772737,
        "timestamp": "2025-12-15T22:44:29.206309+00:00",
        "meta_object_name": "FENGYUN 1C DEB",
        "meta_object_id": "1999-025ARY",
        "meta_epoch": "2025-12-15T09:25:50.866176",
        "meta_mean_motion": 14.03295789,
        "meta_eccentricity": 0.00666361,
        "meta_inclination": 98.8368,
        "meta_ra_of_asc_node": 37.8409,
        "meta_arg_of_pericenter": 275.1481,
        "meta_mean_anomaly": 95.7288,
        "meta_ephemeris_type": 0,
        "meta_classification_type": "U",
        "meta_norad_cat_id": 30714,
        "meta_element_set_no": 999,
        "meta_rev_at_epoch": 96030,
        "meta_bstar": 0.0004790044,
        "meta_mean_motion_dot": 7.19e-06,
        "meta_mean_motion_ddot": 0,
        "tle_line1": "1 30714U 99025ARY 25349.39294984  .00000719  00000+0  47900-3 0  9990",
        "tle_line2": "2 30714  98.8368  37.8409 0066636 275.1481  95.7288 14.03295789960300"
      },
      "geometry": {
        "type": "Point",
        "coordinates": [
          59.86477418626392,
          -66.9874536050138
        ]
      }
    },
    {
      "type": "Feature",
      "properties": {
        "norad_id": 30715,
        "name": "FENGYUN 1C DEB",
        "group": "fengyun-1c-debris",
        "lat": -70.96597059652963,
        "lon": 86.39658351554327,
        "alt_km": 880.2079259101265,
        "timestamp": "2025-12-15T22:44:29.206319+00:00",
        "meta_object_name": "FENGYUN 1C DEB",
        "meta_object_id": "1999-025ARZ",
        "meta_epoch": "2025-12-15T04:25:09.968160",
        "meta_mean_motion": 14.1471403,
        "meta_eccentricity": 0.00677781,
        "meta_inclination": 98.9768,
        "meta_ra_of_asc_node": 58.3592,
        "meta_arg_of_pericenter": 161.4128,
        "meta_mean_anomaly": 198.9543,
        "meta_ephemeris_type": 0,
        "meta_classification_type": "U",
        "meta_norad_cat_id": 30715,
        "meta_element_set_no": 999,
        "meta_rev_at_epoch": 96216,
        "meta_bstar": 0.0014531358,
        "meta_mean_motion_dot": 2.816e-05,
        "meta_mean_motion_ddot": 0,
        "tle_line1": "1 30715U 99025ARZ 25349.18414315  .00002816  00000+0  14531-2 0  9993",
        "tle_line2": "2 30715  98.9768  58.3592 0067778 161.4128 198.9543 14.14714030962163"
      },
      "geometry": {
        "type": "Point",
        "coordinates": [
          86.39658351554327,
          -70.96597059652963
        ]
      }
    },
    {
      "type": "Feature",
      "properties": {
        "norad_id": 30716,
        "name": "FENGYUN 1C DEB",
        "group": "fengyun-1c-debris",
        "lat": 52.41645580277416,
        "lon": 5.049966849980176,
        "alt_km": 617.5162506510478,
        "timestamp": "2025-12-15T22:44:29.206330+00:00",
        "meta_object_name": "FENGYUN 1C DEB",
        "meta_object_id": "1999-025ASA",
        "meta_epoch": "2025-12-15T00:07:41.585952",
        "meta_mean_motion": 14.79513069,
        "meta_eccentricity": 0.00203738,
        "meta_inclination": 98.8718,
        "meta_ra_of_asc_node": 172.3015,
        "meta_arg_of_pericenter": 75.1862,
        "meta_mean_anomaly": 75.6616,
        "meta_ephemeris_type": 0,
        "meta_classification_type": "U",
        "meta_norad_cat_id": 30716,
        "meta_element_set_no": 999,
        "meta_rev_at_epoch": 97857,
        "meta_bstar": 0.0023109545,
        "meta_mean_motion_dot": 0.00017318,
        "meta_mean_motion_ddot": 0,
        "tle_line1": "1 30716U 99025ASA 25349.00534243  .00017318  00000+0  23110-2 0  9994",
        "tle_line2": "2 30716  98.8718 172.3015 0020373  75.1862  75.6616 14.79513069978575"
      },
      "geometry": {
        "type": "Point",
        "coordinates": [
          5.049966849980176,
          52.41645580277416
        ]
      }
    },
    {
      "type": "Feature",
      "properties": {
        "norad_id": 30717,
        "name": "FENGYUN 1C DEB",
        "group": "fengyun-1c-debris",
        "lat": 5.098644151965538,
        "lon": 59.95290342962859,
        "alt_km": 841.2556241144748,
        "timestamp": "2025-12-15T22:44:29.206340+00:00",
        "meta_object_name": "FENGYUN 1C DEB",
        "meta_object_id": "1999-025ASB",
        "meta_epoch": "2025-12-15T04:07:20.834688",
        "meta_mean_motion": 14.20556772,
        "meta_eccentricity": 0.00484191,
        "meta_inclination": 99.0173,
        "meta_ra_of_asc_node": 59.9738,
        "meta_arg_of_pericenter": 250.7099,
        "meta_mean_anomaly": 108.8836,
        "meta_ephemeris_type": 0,
        "meta_classification_type": "U",
        "meta_norad_cat_id": 30717,
        "meta_element_set_no": 999,
        "meta_rev_at_epoch": 96571,
        "meta_bstar": 0.0010307944,
        "meta_mean_motion_dot": 2.196e-05,
        "meta_mean_motion_ddot": 0,
        "tle_line1": "1 30717U 99025ASB 25349.17176892  .00002196  00000+0  10308-2 0  9998",
        "tle_line2": "2 30717  99.0173  59.9738 0048419 250.7099 108.8836 14.20556772965719"
      },
      "geometry": {
        "type": "Point",
        "coordinates": [
          59.95290342962859,
          5.098644151965538
        ]
      }
    },
    {
      "type": "Feature",
      "properties": {
        "norad_id": 30718,
        "name": "FENGYUN 1C DEB",
        "group": "fengyun-1c-debris",
        "lat": 60.14000610286655,
        "lon": -93.79221886001388,
        "alt_km": 768.4469957226611,
        "timestamp": "2025-12-15T22:44:29.206351+00:00",
        "meta_object_name": "FENGYUN 1C DEB",
        "meta_object_id": "1999-025ASC",
        "meta_epoch": "2025-12-14T22:35:02.955552",
        "meta_mean_motion": 14.24368421,
        "meta_eccentricity": 0.00574738,
        "meta_inclination": 98.8907,
        "meta_ra_of_asc_node": 69.3673,
        "meta_arg_of_pericenter": 150.2413,
        "meta_mean_anomaly": 210.2055,
        "meta_ephemeris_type": 0,
        "meta_classification_type": "U",
        "meta_norad_cat_id": 30718,
        "meta_element_set_no": 999,
        "meta_rev_at_epoch": 96805,
        "meta_bstar": 0.0012603785,
        "meta_mean_motion_dot": 2.92e-05,
        "meta_mean_motion_ddot": 0,
        "tle_line1": "1 30718U 99025ASC 25348.94100643  .00002920  00000+0  12604-2 0  9990",
        "tle_line2": "2 30718  98.8907  69.3673 0057473 150.2413 210.2055 14.24368421968056"
      },
      "geometry": {
        "type": "Point",
        "coordinates": [
          -93.79221886001388,
          60.14000610286655
        ]
      }
    }
  ]
}